INTELSAT 33E            
1 41748C 16053B   23152.00000000  .00000139  00000-0  00000-0 0  1526
2 41748   0.0239 300.5489 0002279 170.3164 198.3653  1.00272691    15
INTELSAT 33E        [PM]
1 41748C 16053B   23156.67898148 -.00003528  00000-0  00000-0 0  1561
2 41748   0.0563 174.2535 0002709 155.8103 228.2135  1.00270481    15
INTELSAT 32E            
1 41945C 17007B   23149.00000000 -.00000234  00000-0  00000-0 0  1494
2 41945   0.0000 314.4173 0000557  31.9438 216.7496  1.00270061    16
INTELSAT 32E        [PM]
1 41945C 17007B   23151.12140046 -.00000181  00000-0  00000-0 0  1519
2 41945   0.0332  66.9672 0000561 352.1989 189.7164  1.00274669    10
INTELSAT 32E            
1 41945C 17007B   23152.00000000 -.00000179  00000-0  00000-0 0  1520
2 41945   0.0115  19.2192 0000274  28.4518 158.3777  1.00269913    17
INTELSAT 35E            
1 42818C 17041A   23149.00000000 -.00000148  00000-0  00000-0 0  1496
2 42818   0.0263 274.1614 0001734 139.3919 158.2350  1.00271694    16
INTELSAT 35E            
1 42818C 17041A   23152.00000000 -.00000148  00000-0  00000-0 0  1524
2 42818   0.0179 288.7030 0001847 137.0037 149.0354  1.00271049    12
INTELSAT 35E        [PM]
1 42818C 17041A   23155.71810185 -.00000166  00000-0  00000-0 0  1551
2 42818   0.0025 321.6074 0001735 104.1847  51.1108  1.00273278    13
INTELSAT 37E            
1 42950C 17059A   23149.00000000 -.00003468  00000-0  00000-0 0  1490
2 42950   0.0000 351.4052 0002421  79.7487 157.1273  1.00271316    11
INTELSAT 37E            
1 42950C 17059A   23152.00000000 -.00000099  00000-0  00000-0 0  1525
2 42950   0.0017 318.5954 0002641 119.7906 152.8363  1.00273498    14
INTELSAT 37E        [PM]
1 42950C 17059A   23155.15416667 -.00000075  00000-0  00000-0 0  1551
2 42950   0.0034 322.7589 0002628 123.0089 204.0760  1.00272293    12
AZERSPACE 2 (IS-38)     
1 43632C 18074A   23149.00000000  .00000221  00000-0  00000-0 0  1499
2 43632   0.0032 294.4247 0001522 130.0702 226.8973  1.00269526    19
AZERSPACE 2 (IS-38)     
1 43632C 18074A   23151.97585648  .00000266  00000-0  00000-0 0  1516
2 43632   0.0014 333.2811 0001691 106.2744 206.0694  1.00271567    14
HORIZONS-3E             
1 43633C 18074B   23149.00000000  .00000097  00000-0  00000-0 0  1491
2 43633   0.0392 129.7574 0001226 176.4859 109.0118  1.00268095    13
HORIZONS-3E             
1 43633C 18074B   23151.97585648  .00000032  00000-0  00000-0 0  1518
2 43633   0.0001 184.7836 0000879 101.4150 123.2999  1.00271129    14
INTELSAT 39 (IS-39)     
1 44476C 19049B   23149.00000000  .00000080  00000-0  00000-0 0  1492
2 44476   0.0082 292.6321 0000355  33.2845 342.3157  1.00271164    18
INTELSAT 39 (IS-39) [PM]
1 44476C 19049B   23151.42105324  .00000127  00000-0  00000-0 0  1511
2 44476   0.0557 117.9614 0000226  80.1519 264.0801  1.00272140    16
INTELSAT 39 (IS-39)     
1 44476C 19049B   23151.97585648  .00000122  00000-0  00000-0 0  1517
2 44476   0.0079 310.9701 0000290 101.2978 250.2028  1.00270864    11
GALAXY 30 (G-30)        
1 46114C 20056C   23149.00000000 -.00000358  00000-0  00000-0 0  1492
2 46114   0.0000 324.1828 0002182 101.0412  56.0635  1.00269214    19
GALAXY 30 (G-30)        
1 46114C 20056C   23152.00000000  .00000127  00000-0  00000-0 0  1523
2 46114   0.0090 310.6152 0002387 122.7032  50.9085  1.00270851    14
GALAXY 30 (G-30)    [PM]
1 46114C 20056C   23153.46875000  .00000129  00000-0  00000-0 0  1537
2 46114   0.0053 331.3108 0002436 105.4857 217.6241  1.00271511    12
GALAXY 33 (G-33)        
1 54026C 22128A   23149.00000000 -.00004363  00000-0  00000-0 0  1495
2 54026   0.0162  41.8029 0001720  17.8197  53.6582  1.00271366    11
GALAXY 33 (G-33)        
1 54026C 22128A   23152.00000000  .00000174  00000-0  00000-0 0  1528
2 54026   0.0078 337.0421 0001986  96.0399  43.1528  1.00270742    11
GALAXY 33 (G-33)    [PM]
1 54026C 22128A   23155.94019676  .00000170  00000-0  00000-0 0  1552
2 54026   0.0064 340.6977 0002103  98.4480  19.4384  1.00271539    12
GALAXY 34 (G-34)        
1 54027C 22128B   23149.00000000  .00000131  00000-0  00000-0 0  1494
2 54027   0.0047   9.4010 0002377  69.0504  38.8236  1.00271642    12
GALAXY 34 (G-34)        
1 54027C 22128B   23152.00000000  .00000150  00000-0  00000-0 0  1523
2 54027   0.0052 325.1704 0001971 111.3770  43.6822  1.00271266    18
GALAXY 34 (G-34)    [PM]
1 54027C 22128B   23155.92847222  .00000162  00000-0  00000-0 0  1558
2 54027   0.0036 334.8519 0002096 109.8947  13.6051  1.00271593    12
GALAXY 31 (G-31)        
1 54243C 22153A   23149.00000000  .00000078  00000-0  00000-0 0  1492
2 54243   0.0000 304.3094 0002031 351.5502 189.4179  1.00271415    11
GALAXY 31 (G-31)        
1 54243C 22153A   23151.97585648  .00000104  00000-0  00000-0 0  1510
2 54243   0.0119 298.9292 0001689 357.5720 183.0232  1.00271003    19
GALAXY 31 (G-31)    [PM]
1 54243C 22153A   23155.89609954  .00000103  00000-0  00000-0 0  1555
2 54243   0.0103 307.1641 0001488 348.4212 159.0848  1.00271299    18
GALAXY 32 (G-32)        
1 54244C 22153B   23149.00000000 -.00000084  00000-0  00000-0 0  1491
2 54244   0.0221  25.7245 0002656  11.6432 117.9133  1.00271023    19
GALAXY 32 (G-32)        
1 54244C 22153B   23151.97585648 -.00000084  00000-0  00000-0 0  1519
2 54244   0.0184 346.1898 0002675  57.8195 105.5093  1.00272291    16
GALAXY 32 (G-32)    [PM]
1 54244C 22153B   23156.79848380 -.00000084  00000-0  00000-0 0  1564
2 54244   0.0127 350.5775 0002683  58.9631  40.8753  1.00270580    15
GALAXY 35 (G-35)        
1 54741C 22170A   23149.00000000 -.00000076  00000-0  00000-0 0  1493
2 54741   0.0327  97.7856 0000658 266.3206 149.0709  1.00270482    16
GALAXY 35 (G-35)        
1 54741C 22170A   23151.97585648  .00000137  00000-0  00000-0 0  1518
2 54741   0.0078 340.8375 0000506  57.1229 109.4511  1.00270901    17
GALAXY 35 (G-35)    [PM]
1 54741C 22170A   23155.31033565 -.00000072  00000-0  00000-0 0  1559
2 54741   0.0068 332.3794 0000527  85.8581 212.8773  1.00272035    18
GALAXY 36 (G-36)        
1 54742C 22170B   23149.00000000 -.00000125  00000-0  00000-0 0  1499
2 54742   0.0375 124.3494 0003310 318.7387  74.1928  1.00271145    13
GALAXY 36 (G-36)        
1 54742C 22170B   23151.97585648 -.00000100  00000-0  00000-0 0  1510
2 54742   0.0206  51.3333 0003609  35.7422  64.4476  1.00272067    18
GALAXY 36 (G-36)    [PM]
1 54742C 22170B   23155.30903935 -.00004520  00000-0  00000-0 0  1558
2 54742   0.0011 356.4041 0003752  93.8751 184.4723  1.00271326    11
INTELSAT 40E            
1 56174C 23052A   23149.00000000  .00000083  00000-0  00000-0 0  1492
2 56174   0.0068 226.9212 0001736 224.4783  63.8866  1.00271665    16
INTELSAT 40E            
1 56174C 23052A   23151.97585648 -.00000421  00000-0  00000-0 0  1517
2 56174   0.0003 290.0078 0002079 168.9810  50.5384  1.00271151    19
INTELSAT 40E        [PM]
1 56174C 23052A   23155.31388889 -.00004889  00000-0  00000-0 0  1553
2 56174   0.0022 300.7814 0002315 160.5638 173.1528  1.00271507    13
